0 BREEZE-M DEB
1 38914U 12044AX  13281.65761107  .00078489  31754-5  20233-2 0  4183
2 38914 050.1670 020.5279 2389112 064.3721 318.4116 10.65597706 36447
0 BREEZE-M DEB
1 38914U 12044AX  13282.59562082  .00072608  31192-5  18726-2 0  4196
2 38914 050.1671 018.2759 2388299 066.2205 317.0061 10.65771817 36540
0 BREEZE-M DEB
1 38914U 12044AX  13283.34592439  .00074952  31517-5  19323-2 0  4200
2 38914 050.1671 016.4742 2387820 067.6999 315.8695 10.65869898 36621
0 BREEZE-M DEB
1 38914U 12044AX  13283.53348684  .00074200  31448-5  19134-2 0  4212
2 38914 050.1672 016.0239 2387745 068.0696 315.5840 10.65883862 36642
0 BREEZE-M DEB
1 38914U 12044AX  13284.47124226  .00069699  31045-5  17996-2 0  4224
2 38914 050.1670 013.7716 2387169 069.9177 314.1436 10.65997736 36741
0 BREEZE-M DEB
1 38914U 12044AX  13285.50265485  .00061755  30350-5  15994-2 0  4232
2 38914 050.1672 011.2938 2386496 071.9489 312.5374 10.66121605 36853
0 BREEZE-M DEB
1 38914U 12044AX  13286.62769057  .00061500  30406-5  15933-2 0  4244
2 38914 050.1676 008.5904 2385857 074.1675 310.7560 10.66250107 36971
0 BREEZE-M DEB
1 38914U 12044AX  13287.65884827  .00072951  31617-5  18839-2 0  4257
2 38914 050.1678 006.1129 2385274 076.1970 309.1002 10.66377288 37085
0 BREEZE-M DEB
1 38914U 12044AX  13288.40868263  .00083117  32846-5  21414-2 0  4262
2 38914 050.1679 004.3113 2384639 077.6719 307.8783 10.66515426 37168
0 BREEZE-M DEB
1 38914U 12044AX  13289.43955367  .00081693  32733-5  21047-2 0  4273
2 38914 050.1678 001.8334 2383896 079.7047 306.1725 10.66670941 37279
0 BREEZE-M DEB
1 38914U 12044AX  13290.18918235  .00082117  32820-5  21104-2 0  4284
2 38914 050.1679 000.0316 2383570 081.1825 304.9174 10.66767623 37358
0 BREEZE-M DEB
1 38914U 12044AX  13291.40714818  .00080402  32674-5  20641-2 0  4299
2 38914 050.1677 357.1025 2382688 083.5814 302.8444 10.66965365 37486
0 BREEZE-M DEB
1 38914U 12044AX  13292.43755331  .00085581  33354-5  21927-2 0  4307
2 38914 050.1674 354.6237 2381962 085.6141 301.0564 10.67129343 37595
0 BREEZE-M DEB
1 38914U 12044AX  13293.46779038  .00093361  34423-5  23853-2 0  4315
2 38914 050.1671 352.1441 2381253 087.6490 299.2366 10.67297312 37707
0 BREEZE-M DEB
1 38914U 12044AX  13294.49785296  .00104479  36082-5  26622-2 0  4326
2 38914 050.1669 349.6644 2380522 089.6828 297.3868 10.67465860 37818
0 BREEZE-M DEB
1 38914U 12044AX  13295.62134794  .00108907  36813-5  27710-2 0  4335
2 38914 050.1667 346.9586 2379556 091.9027 295.3297 10.67676974 37930
